Shoemaker,e,30.07657,206.71360,205.19516,1.7997840,0.40820048,0.0818147,203.38563,11/5/1990,1950.0,13.80,0.25
Sholokhov,e,17.70702,130.76308,72.65601,2.7929130,0.21116307,0.1144587,80.31791,11/5/1990,1950.0,10.85,0.15
Shor,e,0.73900,325.63572,274.57486,3.0852517,0.18187298,0.1374649,92.00609,11/5/1990,1950.0,12.10,0.25
Shostakovich,e,7.78643,292.34802,95.02768,2.7808288,0.21254099,0.2177355,37.50493,11/5/1990,1950.0,12.77,0.15
Shukshin,e,4.91369,36.53102,95.22871,2.3702767,0.27008813,0.0896368,278.05128,11/5/1990,1950.0,13.40,0.25
Shura,e,7.75621,332.00244,307.67919,2.7840744,0.21216944,0.0716469,200.96015,11/5/1990,1950.0,11.30,0.25
Sibelius,e,7.03133,311.66280,95.39712,2.2516049,0.29171972,0.1456404,334.01328,11/5/1990,1950.0,12.52,0.25
Siberia,e,14.00182,148.65139,309.11601,2.5452114,0.24272710,0.1360994,3.47180,11/5/1990,1950.0,12.02,0.15
Sibylla,e,4.61206,206.50059,164.71268,3.3846652,0.15828163,0.0555234,128.26267,11/5/1990,1950.0,7.93,0.15
Sichuan,e,10.75666,70.81389,331.35099,2.7909942,0.21138087,0.2657154,217.23592,11/5/1990,1950.0,11.60,0.25
Sicilia,e,7.73775,299.50174,58.48852,3.1855927,0.17334795,0.0286025,66.76244,11/5/1990,1950.0,10.53,0.15
Siding Spring,e,1.76190,217.74614,154.77517,2.3345385,0.27631376,0.2544599,11.43246,11/5/1990,1950.0,13.60,0.25
Sidonia,e,11.00465,82.46005,233.04863,3.0170003,0.18807932,0.0755435,184.33828,11/5/1990,1950.0,7.78,0.05
Siebohme,e,5.71972,199.54622,125.90032,2.6561078,0.22768558,0.1359862,358.57199,11/5/1990,1950.0,11.50,0.25
Siegena,e,20.27342,166.47837,219.08017,2.8969903,0.19988652,0.1684866,347.21884,11/5/1990,1950.0,7.42,0.23
Sigelinde,e,7.68892,267.15301,349.19212,3.1579782,0.17562664,0.0729177,300.83579,11/5/1990,1950.0,9.76,0.15
Signe,e,10.27993,29.14273,19.42085,2.6213155,0.23223364,0.2093962,66.56986,11/5/1990,1950.0,10.46,0.25
Sigrid,e,2.59064,330.28454,1.10620,2.4283958,0.26045030,0.2044464,287.26178,11/5/1990,1950.0,11.91,0.15
Sigune,e,24.99714,132.48254,19.21355,2.3831972,0.26789469,0.1779954,272.57206,11/5/1990,1950.0,10.76,0.25
Sigyn,e,14.39848,150.78481,148.84658,3.0924130,0.18124158,0.0808824,83.13264,11/5/1990,1950.0,10.40,0.25
Sijthoff,e,2.99243,109.03891,53.03370,2.2583236,0.29041885,0.0871681,154.72310,11/5/1990,1950.0,13.70,0.25
Silbermann,e,6.47151,6.55364,353.51491,2.2730109,0.28760856,0.1900483,249.20979,11/5/1990,1950.0,14.20,0.25
Silesia,e,3.64470,34.46710,25.98409,3.1101061,0.17969719,0.1265636,148.03806,11/5/1990,1950.0,9.18,0.25
Silke,e,4.43348,158.88421,306.32439,2.1926130,0.30357157,0.0839138,112.39749,11/5/1990,1950.0,13.00,0.25
Sillanpaa,e,5.25560,17.11610,195.98592,2.2453074,0.29294788,0.1016691,166.78575,11/5/1990,1950.0,13.18,0.25
Silvretta,e,20.70220,6.86236,29.97379,3.1800338,0.17380268,0.2501540,247.48903,11/5/1990,1950.0,9.93,0.15
Simeisa,e,2.25691,265.20674,181.55656,3.9455524,0.12575995,0.1886450,39.05317,11/5/1990,1950.0,8.99,0.15
Simferopol,e,5.95443,271.61099,55.33931,2.8079089,0.20947372,0.1267396,138.03804,11/5/1990,1950.0,11.40,0.25
Simona,e,10.65938,188.90866,213.61410,3.0022977,0.18946258,0.1166412,217.26585,11/5/1990,1950.0,11.12,0.25
Simonida,e,6.79618,29.74371,49.90889,2.2333812,0.29529750,0.1248428,4.87026,11/5/1990,1950.0,12.00,0.25
Simonov,e,8.48363,236.90141,5.52601,2.9101054,0.19853679,0.1155752,322.01949,11/5/1990,1950.0,11.55,0.15
Sinnott,e,3.51042,136.57285,309.79012,2.1896913,0.30417935,0.0978285,245.01342,11/5/1990,1950.0,13.80,0.25
Sinon,e,14.89902,340.41561,102.90246,5.2622834,0.08164747,0.0849086,109.02330,11/5/1990,1950.0,10.30,0.25
Sinton,e,4.16077,142.97059,177.86886,2.2359247,0.29479378,0.1489584,64.57149,11/5/1990,1950.0,14.00,0.25
Sinzot,e,7.06743,149.84668,267.39940,2.7734148,0.21339382,0.1377951,231.87273,11/5/1990,1950.0,12.60,0.25
Sirene,e,15.76082,229.14828,184.94814,2.6283242,0.23130535,0.4540310,260.52318,11/5/1990,1950.0,14.10,0.25
Siri,e,2.85095,31.34980,295.74033,2.7731652,0.21342263,0.0906663,340.52770,11/5/1990,1950.0,9.24,0.15
Sirius,f,6:45:9,-16:43,-1.4,2000
Sirona,e,3.56964,63.51872,94.15820,2.7696085,0.21383387,0.1384110,156.99265,11/5/1990,1950.0,7.86,0.25
Sisigambis,e,3.64665,254.58772,218.29517,2.2213003,0.29770983,0.0899551,258.48451,11/5/1990,1950.0,11.46,0.25
Sisyphus,e,41.14648,63.08439,292.92593,1.8937047,0.37821234,0.5391279,338.97659,11/5/1990,1950.0,13.20,0.25
Sita,e,2.84388,208.51717,165.75553,2.1743738,0.30739922,0.1367578,37.30258,11/5/1990,1950.0,12.35,0.25
Sitarski,e,5.33533,17.04953,53.90612,2.7525735,0.21582199,0.1514438,159.77028,11/5/1990,1950.0,12.90,0.25
Siva,e,22.19281,0.54283,59.00715,2.3257798,0.27787609,0.3002483,307.14554,11/5/1990,1950.0,12.52,0.25
Siwa,e,3.19143,106.82209,195.86883,2.7306683,0.21842415,0.2172050,310.10555,11/5/1990,1950.0,8.20,0.15
Skalnate Ples,e,1.11417,204.13100,60.30282,3.0074590,0.18897506,0.0459323,90.46407,11/5/1990,1950.0,12.60,0.25
Skat,f,22:54:39,-15:49,3.27,2000
Skiff,e,4.85791,295.97543,333.39436,2.2636207,0.28940004,0.1454952,43.72724,11/5/1990,1950.0,12.91,0.13
Skip,e,21.76163,353.26987,110.21541,2.4253504,0.26094100,0.2644877,270.51505,11/5/1990,1950.0,13.20,0.25
Skovoroda,e,2.96415,328.62322,338.47430,2.6457493,0.22902403,0.2802013,315.51681,11/5/1990,1950.0,12.80,0.25
Skuld,e,2.16565,215.73965,113.34348,2.2299848,0.29597240,0.1970604,150.81840,11/5/1990,1950.0,12.10,0.25
Skvortsov,e,4.90862,188.94986,273.33228,2.5392257,0.24358589,0.1360450,114.54449,11/5/1990,1950.0,12.89,0.15
Slavia,e,13.56564,195.53009,60.00581,2.6146558,0.23312147,0.1326530,253.33622,11/5/1990,1950.0,12.22,0.15
Slipher,e,1.58883,318.85889,23.86249,2.1783661,0.30655455,0.1422620,192.75365,11/5/1990,1950.0,12.70,0.25
Slipher,e,5.21876,188.40552,170.05888,2.7493217,0.21620500,0.0851792,66.81489,11/5/1990,1950.0,11.97,0.15
Slovakia,e,3.48442,235.96514,139.61646,2.2261709,0.29673333,0.1782776,256.88131,11/5/1990,1950.0,12.70,0.25
Smetana,e,25.27650,36.06036,307.21489,1.8718033,0.38486973,0.0033497,205.59330,11/5/1990,1950.0,13.70,0.25
Smilevskia,e,1.61578,118.89183,221.02142,2.1823403,0.30571754,0.1951923,24.38099,11/5/1990,1950.0,13.49,0.25
Smiley,e,7.94440,320.78982,125.57081,2.7379481,0.21755359,0.2598251,254.55390,11/5/1990,1950.0,11.75,0.15
Smith,e,13.19673,185.88389,178.94934,3.0421812,0.18574899,0.2694823,315.50036,11/5/1990,1950.0,12.90,0.25
Smither,e,18.45270,258.64687,228.53956,1.8721619,0.38475917,0.0510779,162.78078,11/5/1990,1950.0,13.33,0.25
Smithsonian,e,1.32685,63.08290,286.06650,2.1657823,0.30923019,0.1836084,15.28904,11/5/1990,1950.0,13.40,0.25
Smolensk,e,0.96576,33.65450,317.67072,3.2116986,0.17123869,0.1415404,79.94169,11/5/1990,1950.0,12.28,0.15
Smuts,e,5.91565,152.33369,206.71533,3.1823572,0.17361238,0.1125140,127.94288,11/5/1990,1950.0,9.90,0.25
Sniadeckia,e,13.14804,124.01866,204.55868,3.0012068,0.18956589,0.0092068,232.18517,11/5/1990,1950.0,10.18,0.15
Sobolev,e,9.67742,347.75222,323.36035,3.0010341,0.18958226,0.0940739,216.71441,11/5/1990,1950.0,11.10,0.25
Sodankyla,e,2.91573,314.37360,156.60102,2.3882232,0.26704946,0.1966415,88.44060,11/5/1990,1950.0,13.10,0.25
Soderblom,e,3.14332,134.85567,11.70275,2.7456175,0.21664268,0.1503050,234.18135,11/5/1990,1950.0,12.68,0.15
Sofala,e,5.84635,56.41396,184.22847,2.4336476,0.25960768,0.1094607,121.74031,11/5/1990,1950.0,12.28,0.25
Sofievka,e,4.68086,279.88731,11.55510,2.2953349,0.28342294,0.1850226,207.44397,11/5/1990,1950.0,12.80,0.25
Solon,e,3.16197,191.48582,166.40089,2.2030659,0.30141361,0.1733104,76.47427,11/5/1990,1950.0,13.78,0.25
Solvejg,e,3.09061,121.15273,184.48885,3.1236143,0.17853278,0.1745886,182.60318,11/5/1990,1950.0,10.35,0.25
Soma,e,5.70760,119.42197,237.30155,2.2331226,0.29534880,0.1690929,154.00986,11/5/1990,1950.0,13.12,0.25
Somalia,e,3.29020,327.10085,351.44262,2.5613572,0.24043565,0.1976528,347.56083,11/5/1990,1950.0,12.10,0.25
Somville,e,7.53227,300.50569,114.91772,2.7287191,0.21865823,0.0852158,279.95777,11/5/1990,1950.0,11.78,0.15
Sonja,e,5.36164,236.20984,98.84634,2.2279282,0.29638233,0.2742512,80.30046,11/5/1990,1950.0,14.00,0.25
Sonneberga,e,4.54266,221.45852,324.15872,2.6791289,0.22475722,0.0619058,243.08568,11/5/1990,1950.0,11.22,0.15
Soomana,e,6.76511,7.52386,80.29064,2.3512482,0.27337346,0.1124816,322.12473,11/5/1990,1950.0,13.08,0.25
Sootiyo,e,10.40839,188.23811,69.09675,2.6069455,0.23415646,0.2196159,61.91387,11/5/1990,1950.0,11.88,0.33
Sophia,e,10.52652,155.81731,290.71034,3.0946852,0.18104201,0.1072317,31.74832,11/5/1990,1950.0,10.06,0.15
Sophocles,e,1.44914,149.17051,186.06566,3.2387370,0.16909881,0.1619464,80.64787,11/5/1990,1950.0,13.40,0.25
Sophrosyne,e,11.58053,345.78175,82.96356,2.5633904,0.24014964,0.1167700,134.62039,11/5/1990,1950.0,8.67,0.06
Soren,e,3.04487,24.77398,15.49640,2.6042544,0.23451951,0.1548247,357.75882,11/5/1990,1950.0,13.30,0.25
Sorga,e,10.70211,46.17344,285.56252,2.9861182,0.19100449,0.1431524,303.91414,11/5/1990,1950.0,9.50,0.15
Soromundi,e,5.49738,126.83017,182.37142,2.2700079,0.28817947,0.1701432,100.88511,11/5/1990,1950.0,13.76,0.25
Souseki,e,5.04930,275.23602,125.59649,2.4170217,0.26229091,0.0618398,260.75210,11/5/1990,1950.0,12.90,0.25
Soyuz-Apollo,e,1.98960,139.93461,288.95372,3.1403447,0.17710796,0.1830090,38.02704,11/5/1990,1950.0,11.85,0.15
Spacewatch,e,2.61438,183.58746,78.00622,3.9478966,0.12564795,0.1623467,163.98256,11/5/1990,1950.0,13.60,0.25
Spartacus,e,5.77797,280.49944,333.78813,2.2103199,0.29993102,0.0751155,79.30454,11/5/1990,1950.0,13.10,0.25
Spellmann,e,9.69284,216.14963,213.54364,3.0208414,0.18772071,0.0696147,180.89071,11/5/1990,1950.0,12.10,0.25
Spencer Jones,e,3.16947,161.87848,18.98038,2.1898009,0.30415652,0.0428400,283.02246,11/5/1990,1950.0,13.50,0.25
Sphinx,e,8.19086,253.73506,1.62841,2.2853228,0.28528750,0.1637767,10.74508,11/5/1990,1950.0,11.79,0.25
Spica,f,13:25:11,-11:9,0.97,2000
Spicer,e,6.44707,328.13288,64.93953,2.7001846,0.22213341,0.2323655,333.53215,11/5/1990,1950.0,12.20,0.25
Spiraea,e,1.15758,80.34739,16.56248,3.4326150,0.15497671,0.0519054,21.06059,11/5/1990,1950.0,10.80,0.25
